NORAD_CAT_ID,OBJECT_NAME,OBJECT_TYPE,EPOCH,MEAN_MOTION,ECCENTRICITY,INCLINATION,RA_OF_ASC_NODE,ARG_OF_PERICENTER,MEAN_ANOMALY,BSTAR,MEAN_MOTION_DOT,MEAN_MOTION_DDOT,TLE_LINE0,TLE_LINE1,TLE_LINE2,SEMIMAJOR_AXIS,PERIOD,APOGEE,PERIGEE,DECAYED
53544.0,STARLINK-4303,PAYLOAD,2022-08-24 14:00:01,15.89856126,0.0039521,53.2174,131.3996,56.2464,41.3421,-0.0039486,-0.01288105,0.00047482,0 STARLINK-4303,1 53544U 22101T   22236.58334491 -.01288105  47482-3 -39486-2 0  9996,2 53544  53.2174 131.3996 0039521  56.2464  41.3421 15.89856126   774,6680.823,90.574,329.091,276.285,0.0
53544.0,STARLINK-4303,PAYLOAD,2022-08-25 04:00:00,15.88363937,0.0033067,53.2173,128.4471,57.6988,138.9666,-0.0045411,-0.01342465,0.00050487,0 STARLINK-4303,1 53544U 22101T   22237.16667824 -.01342465  50487-3 -45411-2 0  9994,2 53544  53.2173 128.4471 0033067  57.6988 138.9666 15.88363937   869,6685.005999999999,90.659,328.977,284.766,0.0
53544.0,STARLINK-4303,PAYLOAD,2022-08-25 12:00:00,15.87506375,0.002991,53.2175,126.759,58.4824,244.7974,-0.0048677,-0.01365795,0.00051689,0 STARLINK-4303,1 53544U 22101T   22237.50001157 -.01365795  51689-3 -48677-2 0  9996,2 53544  53.2175 126.7590 0029910  58.4824 244.7974 15.87506375   912,6687.4140000000025,90.708,329.281,289.277,0.0
53544.0,STARLINK-4303,PAYLOAD,2022-08-25 14:00:01,15.87256633,0.0029116,53.2174,126.3373,58.0384,1.7444,-0.0046926,-0.01298407,0.00047027,0 STARLINK-4303,1 53544U 22101T   22237.58334491 -.01298407  47027-3 -46926-2 0  9995,2 53544  53.2174 126.3373 0029116  58.0384   1.7444 15.87256633  1307,6688.115,90.723,329.4530000000001,290.507,0.0
53544.0,STARLINK-4303,PAYLOAD,2022-08-25 18:00:00,15.86857444,0.0027334,53.2175,125.4962,58.2008,234.3556,-0.0050735,-0.01369412,0.00051632,0 STARLINK-4303,1 53544U 22101T   22237.75001157 -.01369412  51632-3 -50735-2 0  9999,2 53544  53.2175 125.4962 0027334  58.2008 234.3556 15.86857444   951,6689.236999999999,90.745,329.386,292.817,0.0
53544.0,STARLINK-4303,PAYLOAD,2022-08-25 22:00:00,15.86402966,0.0025816,53.2176,124.6559,57.2844,107.8045,-0.005043,-0.01326812,0.00048541,0 STARLINK-4303,1 53544U 22101T   22237.91667824 -.01326812  48541-3 -50430-2 0  9990,2 53544  53.2176 124.6559 0025816  57.2844 107.8045 15.86402966  1307,6690.514,90.771,329.651,295.107,0.0
53544.0,STARLINK-4303,PAYLOAD,2022-08-26 12:00:00,15.849074,0.0020111,53.2174,121.7145,58.3066,198.5617,-0.0056862,-0.01212228,0.0,0 STARLINK-4303,1 53544U 22101T   22238.50001157 -.01212228  00000-0 -56862-2 0  9992,2 53544  53.2174 121.7145 0020111  58.3066 198.5617 15.84907400  1072,6694.722,90.857,330.051,303.124,0.0
53544.0,STARLINK-4303,PAYLOAD,2022-08-26 14:00:01,15.8466573,0.0019195999999999,53.2172,121.2943,57.5486,315.1041,-0.005555,-0.01173332,0.0,0 STARLINK-4303,1 53544U 22101T   22238.58335648 -.01173332  00000-0 -55550-2 0  9990,2 53544  53.2172 121.2943 0019196  57.5486 315.1041 15.84665730  1300,6695.403,90.871,330.121,304.416,0.0
53544.0,STARLINK-4303,PAYLOAD,2022-08-26 22:00:00,15.83789083,0.0016090999999999,53.2172,119.6197,57.0531,57.7181,-0.005727,-0.01154794,0.0,0 STARLINK-4303,1 53544U 22101T   22238.91667824 -.01154794  00000-0 -57270-2 0  9993,2 53544  53.2172 119.6197 0016091  57.0531  57.7181 15.83789083  1300,6697.874,90.921,330.516,308.961,0.0
53544.0,STARLINK-4303,PAYLOAD,2022-08-27 14:00:01,15.82080101,0.0009673,53.2175,116.2708,54.5224,261.4785,-0.0065285,-0.01218765,0.0,0 STARLINK-4303,1 53544U 22101T   22239.58334491 -.01218765  00000-0 -65285-2 0  9992,2 53544  53.2175 116.2708 0009673  54.5224 261.4785 15.82080101  1301,6702.696,91.019,331.045,318.078,0.0
53544.0,STARLINK-4303,PAYLOAD,2022-08-27 20:00:01,15.81433679,0.0007477,53.2176,115.0195,49.3691,251.0173,-0.006779,-0.0122404,0.0,0 STARLINK-4303,1 53544U 22101T   22239.83334491 -.01224040  00000-0 -67790-2 0  9996,2 53544  53.2176 115.0195 0007477  49.3691 251.0173 15.81433679  1283,6704.522,91.057,331.4,321.375,0.0
53544.0,STARLINK-4303,PAYLOAD,2022-08-27 22:00:00,15.81189386,0.000678,53.2176,114.6026,45.331,9.7302,-0.006568,-0.01177247,0.0,0 STARLINK-4303,1 53544U 22101T   22239.91667824 -.01177247  00000-0 -65680-2 0  9996,2 53544  53.2176 114.6026 0006780  45.3310   9.7302 15.81189386  1309,6705.2130000000025,91.071,331.624,322.532,0.0
53544.0,STARLINK-4303,PAYLOAD,2022-08-28 14:00:01,15.79470598,0.0003049,53.2172,111.2665,17.1944,232.8412,-0.0073123,-0.01203536,0.0,0 STARLINK-4303,1 53544U 22101T   22240.58334491 -.01203536  00000-0 -73123-2 0  9994,2 53544  53.2172 111.2665 0003049  17.1944 232.8412 15.79470598  1308,6710.0769999999975,91.17,333.987,329.896,0.0
53544.0,STARLINK-4303,PAYLOAD,2022-08-28 20:00:01,15.78812299,0.0002881999999999,53.2174,110.0201,11.1278,220.9514,-0.0074561,-0.01192038,0.0,0 STARLINK-4303,1 53544U 22101T   22240.83334491 -.01192038  00000-0 -74561-2 0  9993,2 53544  53.2174 110.0201 0002882  11.1278 220.9514 15.78812299  1444,6711.941999999999,91.208,335.741,331.872,0.0
53544.0,STARLINK-4303,PAYLOAD,2022-08-28 22:00:00,15.78599926,0.0002951,53.2173,109.6047,7.7633,338.19699999999995,-0.0075752,-0.01198624,0.0,0 STARLINK-4303,1 53544U 22101T   22240.91667824 -.01198624  00000-0 -75752-2 0  9991,2 53544  53.2173 109.6047 0002951   7.7633 338.1970 15.78599926  1300,6712.544,91.22,336.39,332.42800000000005,0.0
53544.0,STARLINK-4303,PAYLOAD,2022-08-29 12:00:00,15.7708401,0.0003098,53.2175,106.6966,346.9628,74.3561,-0.0081406,-0.01202324,0.0,0 STARLINK-4303,1 53544U 22101T   22241.50001157 -.01202324  00000-0 -81406-2 0  9994,2 53544  53.2175 106.6966 0003098 346.9628  74.3561 15.77084010  1558,6716.844,91.308,340.79,336.629,0.0
53544.0,STARLINK-4303,PAYLOAD,2022-08-29 14:00:01,15.76863961,0.0003167,53.2175,106.2814,359.4405,175.2417,-0.0081838,-0.01197488,0.0,0 STARLINK-4303,1 53544U 22101T   22241.58334491 -.01197488  00000-0 -81838-2 0  9995,2 53544  53.2175 106.2814 0003167 359.4405 175.2417 15.76863961  1308,6717.469,91.32,341.462,337.207,0.0
53544.0,STARLINK-4303,PAYLOAD,2022-08-29 22:00:00,15.75983353,0.0003239,53.2175,104.6262,328.4562,299.0252,-0.0083463,-0.01176807,0.0,0 STARLINK-4303,1 53544U 22101T   22241.91667824 -.01176807  00000-0 -83463-2 0  9999,2 53544  53.2175 104.6262 0003239 328.4562 299.0252 15.75983353  1306,6719.971,91.372,344.01300000000015,339.66,0.0
53544.0,STARLINK-4303,PAYLOAD,2022-08-30 06:00:00,15.75123275,9.39e-05,53.2172,102.9702,6.3506,352.8818,-0.0087692,-0.01187502,0.0,0 STARLINK-4303,1 53544U 22101T   22242.25001157 -.01187502  00000-0 -87692-2 0  9990,2 53544  53.2172 102.9702 0000939   6.3506 352.8818 15.75123275  1661,6722.417,91.421,344.914,343.651,0.0
53544.0,STARLINK-4303,PAYLOAD,2022-08-30 14:00:01,15.74222422,0.0001139999999999,53.2169,101.3163,53.1003,36.8237,-0.0077424999999999,-0.01025301,0.0,0 STARLINK-4303,1 53544U 22101T   22242.58334491 -.01025301  00000-0 -77425-2 0  9997,2 53544  53.2169 101.3163 0001140  53.1003  36.8237 15.74222422  1306,6724.982,91.474,347.61300000000006,346.08,0.0
53544.0,STARLINK-4303,PAYLOAD,2022-08-30 20:00:01,15.73504387,0.0001143,53.2174,100.0789,52.9455,14.3542,-0.0030631,-0.00415341,0.0,0 STARLINK-4303,1 53544U 22101T   22242.83334491 -.00415341  00000-0 -30631-2 0  9999,2 53544  53.2174 100.0789 0001143  52.9455  14.3542 15.73504387  1765,6727.026999999999,91.515,349.661,348.124,0.0
53544.0,STARLINK-4303,PAYLOAD,2022-08-30 22:00:00,15.73350843,0.000131,53.2173,99.6667,47.5721,132.0605,-0.0016283,-0.00224594,0.0,0 STARLINK-4303,1 53544U 22101T   22242.91667824 -.00224594  00000-0 -16283-2 0  9992,2 53544  53.2173  99.6667 0001310  47.5721 132.0605 15.73350843  1308,6727.465,91.524,350.211,348.449,0.0
53544.0,STARLINK-4303,PAYLOAD,2022-08-31 12:00:00,15.73201404,0.0001363,53.216,96.7826,70.3705,174.8343,0.00062061,0.00087394,0.0,0 STARLINK-4303,1 53544U 22101T   22243.50001157  .00087394  00000-0  62061-3 0  9998,2 53544  53.2160  96.7826 0001363  70.3705 174.8343 15.73201404  1865,6727.891,91.533,350.673,348.839,0.0
53544.0,STARLINK-4303,PAYLOAD,2022-08-31 14:00:01,15.73224084,0.0001392,53.2162,96.3702,71.4935,285.9445,0.00039471,0.00055197,0.0,0 STARLINK-4303,1 53544U 22101T   22243.58334491  .00055197  00000-0  39471-3 0  9991,2 53544  53.2162  96.3702 0001392  71.4935 285.9445 15.73224084  1300,6727.8269999999975,91.532,350.62800000000016,348.755,0.0
53544.0,STARLINK-4303,PAYLOAD,2022-08-31 20:00:01,15.73270487,0.0001411,53.2158,95.1346,62.7723,271.3943,-0.00021025,-0.00030111,0.0,0 STARLINK-4303,1 53544U 22101T   22243.83334491 -.00030111  00000-0 -21025-3 0  9996,2 53544  53.2158  95.1346 0001411  62.7723 271.3943 15.73270487  1913,6727.694,91.529,350.5080000000001,348.61,0.0
53544.0,STARLINK-4303,PAYLOAD,2022-08-31 22:00:00,15.73282379,0.0001419999999999,53.2158,94.7227,60.7188,25.6997,-0.00032716,-0.00046445,0.0,0 STARLINK-4303,1 53544U 22101T   22243.91667824 -.00046445  00000-0 -32716-3 0  9990,2 53544  53.2158  94.7227 0001420  60.7188  25.6997 15.73282379  1304,6727.66,91.528,350.481,348.57,0.0
53544.0,STARLINK-4303,PAYLOAD,2022-09-01 14:00:01,15.73196961,8.47e-05,53.2159,91.4213,63.0042,201.4625,0.0001278,0.00017351,0.0,0 STARLINK-4303,1 53544U 22101T   22244.58335648  .00017351  00000-0  12780-3 0  9991,2 53544  53.2159  91.4213 0000847  63.0042 201.4625 15.73196961  1304,6727.904,91.533,350.339,349.199,0.0
53544.0,STARLINK-4303,PAYLOAD,2022-09-01 20:00:01,15.73201232,9.51e-05,53.2159,90.1859,48.0653,193.1001,0.00012566,0.00017052,0.0,0 STARLINK-4303,1 53544U 22101T   22244.83335648  .00017052  00000-0  12566-3 0  9999,2 53544  53.2159  90.1859 0000951  48.0653 193.1001 15.73201232  2071,6727.892,91.533,350.396,349.117,0.0
53544.0,STARLINK-4303,PAYLOAD,2022-09-01 22:00:00,15.7319492,9.990000000000004e-05,53.2162,89.7739,47.1608,306.1737,0.0003117,0.00043341,0.0,0 STARLINK-4303,1 53544U 22101T   22244.91667824  .00043341  00000-0  31170-3 0  9994,2 53544  53.2162  89.7739 0000999  47.1608 306.1737 15.73194920  1300,6727.91,91.533,350.44699999999995,349.103,0.0
